STARLINK-35731          
1 66228U 25244Y   25311.83336806 -.01379792  00000+0 -76312-2 0  9990
2 66228  53.1537  82.4435 0000766  56.5814 219.1799 15.81450891  2602
STARLINK-35758          
1 66229U 25244Z   25311.83336806 -.01380812  00000+0 -76431-2 0  9998
2 66229  53.1537  82.4389 0001017  58.0237 220.0143 15.81432880  2609
STARLINK-35736          
1 66230U 25244AA  25311.83336806 -.01413670  00000+0 -78506-2 0  9994
2 66230  53.1537  82.4337 0000903  53.6703 226.7622 15.81426112  2602
STARLINK-35735          
1 66231U 25244AB  25311.83336806 -.01430377  00000+0 -79648-2 0  9996
2 66231  53.1539  82.4286 0000905  43.1980 239.6891 15.81400336  2602
STARLINK-35753          
1 66232U 25244AC  25311.83336806 -.01453120  00000+0 -81016-2 0  9990
2 66232  53.1539  82.4249 0000864  63.4444 221.4588 15.81416939  2604
STARLINK-35626          
1 66233U 25244AD  25311.83336806 -.01500091  00000+0 -84041-2 0  9992
2 66233  53.1538  82.4195 0000928  56.1360 231.1977 15.81402777  2763
STARLINK-35537          
1 66234U 25245A   25311.83336806 -.01065628  00000+0 -41245-2 0  9995
2 66234  53.1531 137.3479 0000943  58.1369  22.1079 15.88935101  2490
STARLINK-35541          
1 66235U 25245B   25311.83336806 -.01075267  00000+0 -41574-2 0  9991
2 66235  53.1529 137.3433 0001055  47.9755  34.3235 15.88977168  2441
STARLINK-35454          
1 66236U 25245C   25311.83336806 -.01075596  00000+0 -41518-2 0  9995
2 66236  53.1529 137.3388 0000766  58.6315  25.7590 15.89013979  2338
STARLINK-35557          
1 66237U 25245D   25311.83336806 -.01085021  00000+0 -41838-2 0  9995
2 66237  53.1529 137.3334 0000755  53.7004  33.2658 15.89056801  2496
STARLINK-35556          
1 66238U 25245E   25311.83336806 -.01087816  00000+0 -41876-2 0  9992
2 66238  53.1529 137.3289 0000822  57.4013  31.7559 15.89095210  2492
STARLINK-35554          
1 66239U 25245F   25311.83336806 -.01098848  00000+0 -42261-2 0  9999
2 66239  53.1529 137.3231 0000615  59.4708  32.4196 15.89141754  2336
