CCSDS_OMM_VERS = 2.0
CREATION_DATE  = 
ORIGINATOR     = 

OBJECT_NAME    = STARLINK-35731
OBJECT_ID      = 2025-244Y
CENTER_NAME    = EARTH
REF_FRAME      = TEME
TIME_SYSTEM    = UTC
MEAN_ELEMENT_THEORY = SGP/SGP4

EPOCH          = 2025-11-07T20:00:03.000384
MEAN_MOTION    = 15.81450891
ECCENTRICITY   = .0000766
INCLINATION    = 53.1537
RA_OF_ASC_NODE = 82.4435
ARG_OF_PERICENTER = 56.5814
MEAN_ANOMALY   = 219.1799

EPHEMERIS_TYPE = 0
CLASSIFICATION_TYPE = U
NORAD_CAT_ID   = 66228
ELEMENT_SET_NO = 999
REV_AT_EPOCH   = 260
BSTAR          = -.76312E-2
MEAN_MOTION_DOT = -.1379792E-1
MEAN_MOTION_DDOT = 0

CCSDS_OMM_VERS = 2.0
CREATION_DATE  = 
ORIGINATOR     = 

OBJECT_NAME    = STARLINK-35758
OBJECT_ID      = 2025-244Z
CENTER_NAME    = EARTH
REF_FRAME      = TEME
TIME_SYSTEM    = UTC
MEAN_ELEMENT_THEORY = SGP/SGP4

EPOCH          = 2025-11-07T20:00:03.000384
MEAN_MOTION    = 15.81432880
ECCENTRICITY   = .0001017
INCLINATION    = 53.1537
RA_OF_ASC_NODE = 82.4389
ARG_OF_PERICENTER = 58.0237
MEAN_ANOMALY   = 220.0143

EPHEMERIS_TYPE = 0
CLASSIFICATION_TYPE = U
NORAD_CAT_ID   = 66229
ELEMENT_SET_NO = 999
REV_AT_EPOCH   = 260
BSTAR          = -.76431E-2
MEAN_MOTION_DOT = -.1380812E-1
MEAN_MOTION_DDOT = 0

CCSDS_OMM_VERS = 2.0
CREATION_DATE  = 
ORIGINATOR     = 

OBJECT_NAME    = STARLINK-35736
OBJECT_ID      = 2025-244AA
CENTER_NAME    = EARTH
REF_FRAME      = TEME
TIME_SYSTEM    = UTC
MEAN_ELEMENT_THEORY = SGP/SGP4

EPOCH          = 2025-11-07T20:00:03.000384
MEAN_MOTION    = 15.81426112
ECCENTRICITY   = .0000903
INCLINATION    = 53.1537
RA_OF_ASC_NODE = 82.4337
ARG_OF_PERICENTER = 53.6703
MEAN_ANOMALY   = 226.7622

EPHEMERIS_TYPE = 0
CLASSIFICATION_TYPE = U
NORAD_CAT_ID   = 66230
ELEMENT_SET_NO = 999
REV_AT_EPOCH   = 260
BSTAR          = -.78506E-2
MEAN_MOTION_DOT = -.141367E-1
MEAN_MOTION_DDOT = 0

CCSDS_OMM_VERS = 2.0
CREATION_DATE  = 
ORIGINATOR     = 

OBJECT_NAME    = STARLINK-35735
OBJECT_ID      = 2025-244AB
CENTER_NAME    = EARTH
REF_FRAME      = TEME
TIME_SYSTEM    = UTC
MEAN_ELEMENT_THEORY = SGP/SGP4

EPOCH          = 2025-11-07T20:00:03.000384
MEAN_MOTION    = 15.81400336
ECCENTRICITY   = .0000905
INCLINATION    = 53.1539
RA_OF_ASC_NODE = 82.4286
ARG_OF_PERICENTER = 43.1980
MEAN_ANOMALY   = 239.6891

EPHEMERIS_TYPE = 0
CLASSIFICATION_TYPE = U
NORAD_CAT_ID   = 66231
ELEMENT_SET_NO = 999
REV_AT_EPOCH   = 260
BSTAR          = -.79648E-2
MEAN_MOTION_DOT = -.1430377E-1
MEAN_MOTION_DDOT = 0

CCSDS_OMM_VERS = 2.0
CREATION_DATE  = 
ORIGINATOR     = 

OBJECT_NAME    = STARLINK-35753
OBJECT_ID      = 2025-244AC
CENTER_NAME    = EARTH
REF_FRAME      = TEME
TIME_SYSTEM    = UTC
MEAN_ELEMENT_THEORY = SGP/SGP4

EPOCH          = 2025-11-07T20:00:03.000384
MEAN_MOTION    = 15.81416939
ECCENTRICITY   = .0000864
INCLINATION    = 53.1539
RA_OF_ASC_NODE = 82.4249
ARG_OF_PERICENTER = 63.4444
MEAN_ANOMALY   = 221.4588

EPHEMERIS_TYPE = 0
CLASSIFICATION_TYPE = U
NORAD_CAT_ID   = 66232
ELEMENT_SET_NO = 999
REV_AT_EPOCH   = 260
BSTAR          = -.81016E-2
MEAN_MOTION_DOT = -.145312E-1
MEAN_MOTION_DDOT = 0

CCSDS_OMM_VERS = 2.0
CREATION_DATE  = 
ORIGINATOR     = 

OBJECT_NAME    = STARLINK-35626
OBJECT_ID      = 2025-244AD
CENTER_NAME    = EARTH
REF_FRAME      = TEME
TIME_SYSTEM    = UTC
MEAN_ELEMENT_THEORY = SGP/SGP4

EPOCH          = 2025-11-07T20:00:03.000384
MEAN_MOTION    = 15.81402777
ECCENTRICITY   = .0000928
INCLINATION    = 53.1538
RA_OF_ASC_NODE = 82.4195
ARG_OF_PERICENTER = 56.1360
MEAN_ANOMALY   = 231.1977

EPHEMERIS_TYPE = 0
CLASSIFICATION_TYPE = U
NORAD_CAT_ID   = 66233
ELEMENT_SET_NO = 999
REV_AT_EPOCH   = 276
BSTAR          = -.84041E-2
MEAN_MOTION_DOT = -.1500091E-1
MEAN_MOTION_DDOT = 0

CCSDS_OMM_VERS = 2.0
CREATION_DATE  = 
ORIGINATOR     = 

OBJECT_NAME    = STARLINK-35537
OBJECT_ID      = 2025-245A
CENTER_NAME    = EARTH
REF_FRAME      = TEME
TIME_SYSTEM    = UTC
MEAN_ELEMENT_THEORY = SGP/SGP4

EPOCH          = 2025-11-07T20:00:03.000384
MEAN_MOTION    = 15.88935101
ECCENTRICITY   = .0000943
INCLINATION    = 53.1531
RA_OF_ASC_NODE = 137.3479
ARG_OF_PERICENTER = 58.1369
MEAN_ANOMALY   = 22.1079

EPHEMERIS_TYPE = 0
CLASSIFICATION_TYPE = U
NORAD_CAT_ID   = 66234
ELEMENT_SET_NO = 999
REV_AT_EPOCH   = 249
BSTAR          = -.41245E-2
MEAN_MOTION_DOT = -.1065628E-1
MEAN_MOTION_DDOT = 0

CCSDS_OMM_VERS = 2.0
CREATION_DATE  = 
ORIGINATOR     = 

OBJECT_NAME    = STARLINK-35541
OBJECT_ID      = 2025-245B
CENTER_NAME    = EARTH
REF_FRAME      = TEME
TIME_SYSTEM    = UTC
MEAN_ELEMENT_THEORY = SGP/SGP4

EPOCH          = 2025-11-07T20:00:03.000384
MEAN_MOTION    = 15.88977168
ECCENTRICITY   = .0001055
INCLINATION    = 53.1529
RA_OF_ASC_NODE = 137.3433
ARG_OF_PERICENTER = 47.9755
MEAN_ANOMALY   = 34.3235

EPHEMERIS_TYPE = 0
CLASSIFICATION_TYPE = U
NORAD_CAT_ID   = 66235
ELEMENT_SET_NO = 999
REV_AT_EPOCH   = 244
BSTAR          = -.41574E-2
MEAN_MOTION_DOT = -.1075267E-1
MEAN_MOTION_DDOT = 0

CCSDS_OMM_VERS = 2.0
CREATION_DATE  = 
ORIGINATOR     = 

OBJECT_NAME    = STARLINK-35454
OBJECT_ID      = 2025-245C
CENTER_NAME    = EARTH
REF_FRAME      = TEME
TIME_SYSTEM    = UTC
MEAN_ELEMENT_THEORY = SGP/SGP4

EPOCH          = 2025-11-07T20:00:03.000384
MEAN_MOTION    = 15.89013979
ECCENTRICITY   = .0000766
INCLINATION    = 53.1529
RA_OF_ASC_NODE = 137.3388
ARG_OF_PERICENTER = 58.6315
MEAN_ANOMALY   = 25.7590

EPHEMERIS_TYPE = 0
CLASSIFICATION_TYPE = U
NORAD_CAT_ID   = 66236
ELEMENT_SET_NO = 999
REV_AT_EPOCH   = 233
BSTAR          = -.41518E-2
MEAN_MOTION_DOT = -.1075596E-1
MEAN_MOTION_DDOT = 0

CCSDS_OMM_VERS = 2.0
CREATION_DATE  = 
ORIGINATOR     = 

OBJECT_NAME    = STARLINK-35557
OBJECT_ID      = 2025-245D
CENTER_NAME    = EARTH
REF_FRAME      = TEME
TIME_SYSTEM    = UTC
MEAN_ELEMENT_THEORY = SGP/SGP4

EPOCH          = 2025-11-07T20:00:03.000384
MEAN_MOTION    = 15.89056801
ECCENTRICITY   = .0000755
INCLINATION    = 53.1529
RA_OF_ASC_NODE = 137.3334
ARG_OF_PERICENTER = 53.7004
MEAN_ANOMALY   = 33.2658

EPHEMERIS_TYPE = 0
CLASSIFICATION_TYPE = U
NORAD_CAT_ID   = 66237
ELEMENT_SET_NO = 999
REV_AT_EPOCH   = 249
BSTAR          = -.41838E-2
MEAN_MOTION_DOT = -.1085021E-1
MEAN_MOTION_DDOT = 0

CCSDS_OMM_VERS = 2.0
CREATION_DATE  = 
ORIGINATOR     = 

OBJECT_NAME    = STARLINK-35556
OBJECT_ID      = 2025-245E
CENTER_NAME    = EARTH
REF_FRAME      = TEME
TIME_SYSTEM    = UTC
MEAN_ELEMENT_THEORY = SGP/SGP4

EPOCH          = 2025-11-07T20:00:03.000384
MEAN_MOTION    = 15.89095210
ECCENTRICITY   = .0000822
INCLINATION    = 53.1529
RA_OF_ASC_NODE = 137.3289
ARG_OF_PERICENTER = 57.4013
MEAN_ANOMALY   = 31.7559

EPHEMERIS_TYPE = 0
CLASSIFICATION_TYPE = U
NORAD_CAT_ID   = 66238
ELEMENT_SET_NO = 999
REV_AT_EPOCH   = 249
BSTAR          = -.41876E-2
MEAN_MOTION_DOT = -.1087816E-1
MEAN_MOTION_DDOT = 0

CCSDS_OMM_VERS = 2.0
CREATION_DATE  = 
ORIGINATOR     = 

OBJECT_NAME    = STARLINK-35554
OBJECT_ID      = 2025-245F
CENTER_NAME    = EARTH
REF_FRAME      = TEME
TIME_SYSTEM    = UTC
MEAN_ELEMENT_THEORY = SGP/SGP4

EPOCH          = 2025-11-07T20:00:03.000384
MEAN_MOTION    = 15.89141754
ECCENTRICITY   = .0000615
INCLINATION    = 53.1529
RA_OF_ASC_NODE = 137.3231
ARG_OF_PERICENTER = 59.4708
MEAN_ANOMALY   = 32.4196

EPHEMERIS_TYPE = 0
CLASSIFICATION_TYPE = U
NORAD_CAT_ID   = 66239
ELEMENT_SET_NO = 999
REV_AT_EPOCH   = 233
BSTAR          = -.42261E-2
MEAN_MOTION_DOT = -.1098848E-1
MEAN_MOTION_DDOT = 0

